{
  "type": "FeatureCollection",
  "features": [
    {
      "type": "Feature",
      "properties": {
        "norad_id": 30073,
        "name": "FENGYUN 1C DEB",
        "group": "fengyun-1c-debris",
        "lat": -0.2658129728465478,
        "lon": 130.1926443202654,
        "alt_km": 856.039909698582,
        "timestamp": "2025-12-03T15:48:03.345205+00:00",
        "meta_object_name": "FENGYUN 1C DEB",
        "meta_object_id": "1999-025QA",
        "meta_epoch": "2025-12-02T22:19:43.620672",
        "meta_mean_motion": 14.18558254,
        "meta_eccentricity": 0.00543552,
        "meta_inclination": 99.4101,
        "meta_ra_of_asc_node": 309.465,
        "meta_arg_of_pericenter": 308.2236,
        "meta_mean_anomaly": 116.6831,
        "meta_ephemeris_type": 0,
        "meta_classification_type": "U",
        "meta_norad_cat_id": 30073,
        "meta_element_set_no": 999,
        "meta_rev_at_epoch": 96786,
        "meta_bstar": 0.0023460474,
        "meta_mean_motion_dot": 4.88e-05,
        "meta_mean_motion_ddot": 0,
        "tle_line1": "1 30073U 99025QA  25336.93036598  .00004880  00000+0  23460-2 0  9996",
        "tle_line2": "2 30073  99.4101 309.4650 0054355 308.2236 116.6831 14.18558254967867"
      },
      "geometry": {
        "type": "Point",
        "coordinates": [
          130.1926443202654,
          -0.2658129728465478
        ]
      }
    },
    {
      "type": "Feature",
      "properties": {
        "norad_id": 30074,
        "name": "FENGYUN 1C DEB",
        "group": "fengyun-1c-debris",
        "lat": 54.445893209849615,
        "lon": -123.27511764172608,
        "alt_km": 801.3435287926168,
        "timestamp": "2025-12-03T15:48:03.345214+00:00",
        "meta_object_name": "FENGYUN 1C DEB",
        "meta_object_id": "1999-025QB",
        "meta_epoch": "2025-12-03T03:18:42.300576",
        "meta_mean_motion": 14.12765686,
        "meta_eccentricity": 0.00975993,
        "meta_inclination": 99.1309,
        "meta_ra_of_asc_node": 43.1902,
        "meta_arg_of_pericenter": 178.438,
        "meta_mean_anomaly": 181.7114,
        "meta_ephemeris_type": 0,
        "meta_classification_type": "U",
        "meta_norad_cat_id": 30074,
        "meta_element_set_no": 999,
        "meta_rev_at_epoch": 96526,
        "meta_bstar": 0.002027268,
        "meta_mean_motion_dot": 3.894e-05,
        "meta_mean_motion_ddot": 0,
        "tle_line1": "1 30074U 99025QB  25337.13798959  .00003894  00000+0  20273-2 0  9999",
        "tle_line2": "2 30074  99.1309  43.1902 0097599 178.4380 181.7114 14.12765686965263"
      },
      "geometry": {
        "type": "Point",
        "coordinates": [
          -123.27511764172608,
          54.445893209849615
        ]
      }
    },
    {
      "type": "Feature",
      "properties": {
        "norad_id": 30075,
        "name": "FENGYUN 1C DEB",
        "group": "fengyun-1c-debris",
        "lat": 18.230984468981955,
        "lon": -149.0070626234114,
        "alt_km": 869.1496486590422,
        "timestamp": "2025-12-03T15:48:03.345224+00:00",
        "meta_object_name": "FENGYUN 1C DEB",
        "meta_object_id": "1999-025QC",
        "meta_epoch": "2025-12-03T03:04:45.787008",
        "meta_mean_motion": 13.92527239,
        "meta_eccentricity": 0.00906933,
        "meta_inclination": 99.3632,
        "meta_ra_of_asc_node": 27.3421,
        "meta_arg_of_pericenter": 202.973,
        "meta_mean_anomaly": 183.2655,
        "meta_ephemeris_type": 0,
        "meta_classification_type": "U",
        "meta_norad_cat_id": 30075,
        "meta_element_set_no": 999,
        "meta_rev_at_epoch": 95931,
        "meta_bstar": 0.00015417607,
        "meta_mean_motion_dot": 1.59e-06,
        "meta_mean_motion_ddot": 0,
        "tle_line1": "1 30075U 99025QC  25337.12830772  .00000159  00000+0  15418-3 0  9996",
        "tle_line2": "2 30075  99.3632  27.3421 0090693 202.9730 183.2655 13.92527239959318"
      },
      "geometry": {
        "type": "Point",
        "coordinates": [
          -149.0070626234114,
          18.230984468981955
        ]
      }
    },
    {
      "type": "Feature",
      "properties": {
        "norad_id": 30076,
        "name": "FENGYUN 1C DEB",
        "group": "fengyun-1c-debris",
        "lat": 25.94242679294806,
        "lon": -39.88843857125837,
        "alt_km": 976.8257468023667,
        "timestamp": "2025-12-03T15:48:03.345233+00:00",
        "meta_object_name": "FENGYUN 1C DEB",
        "meta_object_id": "1999-025QD",
        "meta_epoch": "2025-12-02T22:29:26.131200",
        "meta_mean_motion": 13.76281558,
        "meta_eccentricity": 0.01755648,
        "meta_inclination": 99.2374,
        "meta_ra_of_asc_node": 323.9524,
        "meta_arg_of_pericenter": 119.638,
        "meta_mean_anomaly": 297.0983,
        "meta_ephemeris_type": 0,
        "meta_classification_type": "U",
        "meta_norad_cat_id": 30076,
        "meta_element_set_no": 999,
        "meta_rev_at_epoch": 94759,
        "meta_bstar": 0.00033510342,
        "meta_mean_motion_dot": 3.24e-06,
        "meta_mean_motion_ddot": 0,
        "tle_line1": "1 30076U 99025QD  25336.93710800  .00000324  00000+0  33510-3 0  9991",
        "tle_line2": "2 30076  99.2374 323.9524 0175564 119.6380 297.0983 13.76281558947594"
      },
      "geometry": {
        "type": "Point",
        "coordinates": [
          -39.88843857125837,
          25.94242679294806
        ]
      }
    },
    {
      "type": "Feature",
      "properties": {
        "norad_id": 30077,
        "name": "FENGYUN 1C DEB",
        "group": "fengyun-1c-debris",
        "lat": 27.037758979952365,
        "lon": -10.913988425413358,
        "alt_km": 869.8518005941824,
        "timestamp": "2025-12-03T15:48:03.345242+00:00",
        "meta_object_name": "FENGYUN 1C DEB",
        "meta_object_id": "1999-025QE",
        "meta_epoch": "2025-12-03T00:27:01.283040",
        "meta_mean_motion": 14.07077016,
        "meta_eccentricity": 0.00204674,
        "meta_inclination": 98.7586,
        "meta_ra_of_asc_node": 352.9791,
        "meta_arg_of_pericenter": 293.0048,
        "meta_mean_anomaly": 96.13,
        "meta_ephemeris_type": 0,
        "meta_classification_type": "U",
        "meta_norad_cat_id": 30077,
        "meta_element_set_no": 999,
        "meta_rev_at_epoch": 96976,
        "meta_bstar": -3.7087437e-05,
        "meta_mean_motion_dot": -1.05e-06,
        "meta_mean_motion_ddot": 0,
        "tle_line1": "1 30077U 99025QE  25337.01876485 -.00000105  00000+0 -37087-4 0  9997",
        "tle_line2": "2 30077  98.7586 352.9791 0020467 293.0048  96.1300 14.07077016969762"
      },
      "geometry": {
        "type": "Point",
        "coordinates": [
          -10.913988425413358,
          27.037758979952365
        ]
      }
    },
    {
      "type": "Feature",
      "properties": {
        "norad_id": 30078,
        "name": "FENGYUN 1C DEB",
        "group": "fengyun-1c-debris",
        "lat": 64.5641398784471,
        "lon": -108.41799096177205,
        "alt_km": 845.4795315401016,
        "timestamp": "2025-12-03T15:48:03.345251+00:00",
        "meta_object_name": "FENGYUN 1C DEB",
        "meta_object_id": "1999-025QF",
        "meta_epoch": "2025-12-03T03:35:30.783840",
        "meta_mean_motion": 14.23044603,
        "meta_eccentricity": 0.00524759,
        "meta_inclination": 98.8335,
        "meta_ra_of_asc_node": 51.987,
        "meta_arg_of_pericenter": 308.5152,
        "meta_mean_anomaly": 80.6126,
        "meta_ephemeris_type": 0,
        "meta_classification_type": "U",
        "meta_norad_cat_id": 30078,
        "meta_element_set_no": 999,
        "meta_rev_at_epoch": 96977,
        "meta_bstar": 0.0018222163,
        "meta_mean_motion_dot": 4.122e-05,
        "meta_mean_motion_ddot": 0,
        "tle_line1": "1 30078U 99025QF  25337.14966185  .00004122  00000+0  18222-2 0  9998",
        "tle_line2": "2 30078  98.8335  51.9870 0052475 308.5152  80.6126 14.23044603969771"
      },
      "geometry": {
        "type": "Point",
        "coordinates": [
          -108.41799096177205,
          64.5641398784471
        ]
      }
    },
    {
      "type": "Feature",
      "properties": {
        "norad_id": 30079,
        "name": "FENGYUN 1C DEB",
        "group": "fengyun-1c-debris",
        "lat": -36.897580912818974,
        "lon": -153.56742314420902,
        "alt_km": 915.1920013999506,
        "timestamp": "2025-12-03T15:48:03.345260+00:00",
        "meta_object_name": "FENGYUN 1C DEB",
        "meta_object_id": "1999-025QG",
        "meta_epoch": "2025-12-03T03:01:07.118976",
        "meta_mean_motion": 14.00784327,
        "meta_eccentricity": 0.00847282,
        "meta_inclination": 99.0375,
        "meta_ra_of_asc_node": 32.7683,
        "meta_arg_of_pericenter": 326.1046,
        "meta_mean_anomaly": 87.8548,
        "meta_ephemeris_type": 0,
        "meta_classification_type": "U",
        "meta_norad_cat_id": 30079,
        "meta_element_set_no": 999,
        "meta_rev_at_epoch": 96403,
        "meta_bstar": 0.00022550136,
        "meta_mean_motion_dot": 3.02e-06,
        "meta_mean_motion_ddot": 0,
        "tle_line1": "1 30079U 99025QG  25337.12577684  .00000302  00000+0  22550-3 0  9995",
        "tle_line2": "2 30079  99.0375  32.7683 0084728 326.1046  87.8548 14.00784327964032"
      },
      "geometry": {
        "type": "Point",
        "coordinates": [
          -153.56742314420902,
          -36.897580912818974
        ]
      }
    }
  ]
}